CSS (TIANHE)            
1 48274U 21035A   24169.80510819  .00035983  00000+0  40183-3 0  9996
2 48274  41.4683  79.3516 0004242 241.4134 118.6278 15.62033870179190
